1 08820U 76039A   03179.85707202  .00000015  00000-0  10000-3 0  9635
2 08820 109.8031 185.5938 0044598 298.9952  60.6261  6.38664443377805
